{"type": "FeatureCollection", "features": [ {"type": "Feature", "properties": {"norad_id": 52912, "name": "GAOFEN-12 03", "group": "resource", "lat": 29.295427942032823, "lon": -123.31127239226191, "alt_km": 627.8312540028746, "timestamp": "2025-12-19T22:41:52.036976+00:00", "meta": {"OBJECT_NAME": "GAOFEN-12 03", "OBJECT_ID": "2022-069A", "EPOCH": "2025-12-19T17:41:43.493280", "MEAN_MOTION": 14.7962611, "ECCENTRICITY": 0.0002005, "INCLINATION": 97.8489, "RA_OF_ASC_NODE": 240.9241, "ARG_OF_PERICENTER": 54.5151, "MEAN_ANOMALY": 305.6248, "EPHEMERIS_TYPE": 0, "CLASSIFICATION_TYPE": "U", "NORAD_CAT_ID": 52912, "ELEMENT_SET_NO": 999, "REV_AT_EPOCH": 18807, "BSTAR": 0.00015868, "MEAN_MOTION_DOT": 1.139e-05, "MEAN_MOTION_DDOT": 0}, "tle": {"line1": "1 52912U 22069A   25353.73730895  .00001139  00000+0  15868-3 0  9992", "line2": "2 52912  97.8489 240.9241 0002005  54.5151 305.6248 14.79626110188075"}}, "geometry": {"type": "Point", "coordinates": [-123.31127239226191, 29.295427942032823]}}, {"type": "Feature", "properties": {"norad_id": 54754, "name": "SWOT", "group": "resource", "lat": 66.45530968069669, "lon": 66.9688841110994, "alt_km": 886.3102110410982, "timestamp": "2025-12-19T22:41:52.036986+00:00", "meta": {"OBJECT_NAME": "SWOT", "OBJECT_ID": "2022-173A", "EPOCH": "2025-12-19T17:01:44.319072", "MEAN_MOTION": 14.00167873, "ECCENTRICITY": 3.62e-05, "INCLINATION": 77.6109, "RA_OF_ASC_NODE": 277.5814, "ARG_OF_PERICENTER": 93.4005, "MEAN_ANOMALY": 266.7188, "EPHEMERIS_TYPE": 0, "CLASSIFICATION_TYPE": "U", "NORAD_CAT_ID": 54754, "ELEMENT_SET_NO": 999, "REV_AT_EPOCH": 15403, "BSTAR": 2.4282e-05, "MEAN_MOTION_DOT": 3.3e-07, "MEAN_MOTION_DDOT": 0}, "tle": {"line1": "1 54754U 22173A   25353.70954073  .00000033  00000+0  24282-4 0  9990", "line2": "2 54754  77.6109 277.5814 0000362  93.4005 266.7188 14.00167873154031"}}, "geometry": {"type": "Point", "coordinates": [66.9688841110994, 66.45530968069669]}}, {"type": "Feature", "properties": {"norad_id": 57654, "name": "GAOFEN-12 04", "group": "resource", "lat": -21.661337332399068, "lon": 86.4270380975483, "alt_km": 636.0679443714635, "timestamp": "2025-12-19T22:41:52.036996+00:00", "meta": {"OBJECT_NAME": "GAOFEN-12 04", "OBJECT_ID": "2023-123A", "EPOCH": "2025-12-19T18:32:34.951200", "MEAN_MOTION": 14.79718677, "ECCENTRICITY": 0.0001236, "INCLINATION": 97.9127, "RA_OF_ASC_NODE": 269.4231, "ARG_OF_PERICENTER": 76.9668, "MEAN_ANOMALY": 283.1682, "EPHEMERIS_TYPE": 0, "CLASSIFICATION_TYPE": "U", "NORAD_CAT_ID": 57654, "ELEMENT_SET_NO": 999, "REV_AT_EPOCH": 12609, "BSTAR": 0.00012929, "MEAN_MOTION_DOT": 9.2e-06, "MEAN_MOTION_DDOT": 0}, "tle": {"line1": "1 57654U 23123A   25353.77262675  .00000920  00000+0  12929-3 0  9994", "line2": "2 57654  97.9127 269.4231 0001236  76.9668 283.1682 14.79718677126090"}}, "geometry": {"type": "Point", "coordinates": [86.4270380975483, -21.661337332399068]}}, {"type": "Feature", "properties": {"norad_id": 59065, "name": "PARS 1", "group": "resource", "lat": 26.76503442290354, "lon": -38.75956021616337, "alt_km": 434.2744434323522, "timestamp": "2025-12-19T22:41:52.037006+00:00", "meta": {"OBJECT_NAME": "PARS 1", "OBJECT_ID": "2024-039Q", "EPOCH": "2025-12-19T17:54:22.416192", "MEAN_MOTION": 15.41124704, "ECCENTRICITY": 0.0012121, "INCLINATION": 97.4638, "RA_OF_ASC_NODE": 324.8279, "ARG_OF_PERICENTER": 51.104, "MEAN_ANOMALY": 309.1286, "EPHEMERIS_TYPE": 0, "CLASSIFICATION_TYPE": "U", "NORAD_CAT_ID": 59065, "ELEMENT_SET_NO": 999, "REV_AT_EPOCH": 10096, "BSTAR": 0.00021357, "MEAN_MOTION_DOT": 8.777e-05, "MEAN_MOTION_DDOT": 0}, "tle": {"line1": "1 59065U 24039Q   25353.74609278  .00008777  00000+0  21357-3 0  9993", "line2": "2 59065  97.4638 324.8279 0012121  51.1040 309.1286 15.41124704100961"}}, "geometry": {"type": "Point", "coordinates": [-38.75956021616337, 26.76503442290354]}}, {"type": "Feature", "properties": {"norad_id": 59371, "name": "RESURS-P 4", "group": "resource", "lat": -61.71871819624116, "lon": -46.17436454797154, "alt_km": 477.0195488970721, "timestamp": "2025-12-19T22:41:52.037016+00:00", "meta": {"OBJECT_NAME": "RESURS-P 4", "OBJECT_ID": "2024-061A", "EPOCH": "2025-12-19T19:50:08.433600", "MEAN_MOTION": 15.32137848, "ECCENTRICITY": 0.0001051, "INCLINATION": 97.2555, "RA_OF_ASC_NODE": 300.0111, "ARG_OF_PERICENTER": 59.2139, "MEAN_ANOMALY": 300.9207, "EPHEMERIS_TYPE": 0, "CLASSIFICATION_TYPE": "U", "NORAD_CAT_ID": 59371, "ELEMENT_SET_NO": 999, "REV_AT_EPOCH": 9629, "BSTAR": 9.5869e-05, "MEAN_MOTION_DOT": 2.899e-05, "MEAN_MOTION_DDOT": 0}, "tle": {"line1": "1 59371U 24061A   25353.82648650  .00002899  00000+0  95869-4 0  9993", "line2": "2 59371  97.2555 300.0111 0001051  59.2139 300.9207 15.32137848 96291"}}, "geometry": {"type": "Point", "coordinates": [-46.17436454797154, -61.71871819624116]}}, {"type": "Feature", "properties": {"norad_id": 59625, "name": "LEGION 1", "group": "resource", "lat": 60.41906001034038, "lon": -98.0180472255612, "alt_km": 512.8927563138495, "timestamp": "2025-12-19T22:41:52.037026+00:00", "meta": {"OBJECT_NAME": "LEGION 1", "OBJECT_ID": "2024-081A", "EPOCH": "2025-12-19T17:25:32.164608", "MEAN_MOTION": 15.16544298, "ECCENTRICITY": 0.0003636, "INCLINATION": 97.521, "RA_OF_ASC_NODE": 68.3052, "ARG_OF_PERICENTER": 285.9384, "MEAN_ANOMALY": 74.1448, "EPHEMERIS_TYPE": 0, "CLASSIFICATION_TYPE": "U", "NORAD_CAT_ID": 59625, "ELEMENT_SET_NO": 999, "REV_AT_EPOCH": 9033, "BSTAR": 0.00016556, "MEAN_MOTION_DOT": 3.162e-05, "MEAN_MOTION_DDOT": 0}, "tle": {"line1": "1 59625U 24081A   25353.72606672  .00003162  00000+0  16556-3 0  9993", "line2": "2 59625  97.5210  68.3052 0003636 285.9384  74.1448 15.16544298 90332"}}, "geometry": {"type": "Point", "coordinates": [-98.0180472255612, 60.41906001034038]}}, {"type": "Feature", "properties": {"norad_id": 59626, "name": "LEGION 2", "group": "resource", "lat": -60.4080056517065, "lon": 82.06429991103721, "alt_km": 520.2996534880876, "timestamp": "2025-12-19T22:41:52.037036+00:00", "meta": {"OBJECT_NAME": "LEGION 2", "OBJECT_ID": "2024-081B", "EPOCH": "2025-12-19T15:02:59.546112", "MEAN_MOTION": 15.1655654, "ECCENTRICITY": 0.0005623, "INCLINATION": 97.5214, "RA_OF_ASC_NODE": 68.2948, "ARG_OF_PERICENTER": 263.6513, "MEAN_ANOMALY": 96.4079, "EPHEMERIS_TYPE": 0, "CLASSIFICATION_TYPE": "U", "NORAD_CAT_ID": 59626, "ELEMENT_SET_NO": 999, "REV_AT_EPOCH": 9032, "BSTAR": 0.00020419, "MEAN_MOTION_DOT": 3.917e-05, "MEAN_MOTION_DDOT": 0}, "tle": {"line1": "1 59626U 24081B   25353.62707808  .00003917  00000+0  20419-3 0  9997", "line2": "2 59626  97.5214  68.2948 0005623 263.6513  96.4079 15.16556540 90324"}}, "geometry": {"type": "Point", "coordinates": [82.06429991103721, -60.4080056517065]}}, {"type": "Feature", "properties": {"norad_id": 60182, "name": "ALOS-4 (DAICHI-4)", "group": "resource", "lat": 74.0565547295803, "lon": 59.51694243033916, "alt_km": 623.0303786000732, "timestamp": "2025-12-19T22:41:52.037047+00:00", "meta": {"OBJECT_NAME": "ALOS-4 (DAICHI-4)", "OBJECT_ID": "2024-123A", "EPOCH": "2025-12-19T19:06:31.175424", "MEAN_MOTION": 14.79473832, "ECCENTRICITY": 0.0001382, "INCLINATION": 97.9224, "RA_OF_ASC_NODE": 88.5427, "ARG_OF_PERICENTER": 101.3847, "MEAN_ANOMALY": 258.7519, "EPHEMERIS_TYPE": 0, "CLASSIFICATION_TYPE": "U", "NORAD_CAT_ID": 60182, "ELEMENT_SET_NO": 999, "REV_AT_EPOCH": 7935, "BSTAR": 0.00019771, "MEAN_MOTION_DOT": 1.425e-05, "MEAN_MOTION_DDOT": 0}, "tle": {"line1": "1 60182U 24123A   25353.79619416  .00001425  00000+0  19771-3 0  9999", "line2": "2 60182  97.9224  88.5427 0001382 101.3847 258.7519 14.79473832 79353"}}, "geometry": {"type": "Point", "coordinates": [59.51694243033916, 74.0565547295803]}}, {"type": "Feature", "properties": {"norad_id": 60452, "name": "LEGION 3", "group": "resource", "lat": 23.34940526172216, "lon": -62.90941922138629, "alt_km": 524.828783134586, "timestamp": "2025-12-19T22:41:52.037057+00:00", "meta": {"OBJECT_NAME": "LEGION 3", "OBJECT_ID": "2024-146A", "EPOCH": "2025-12-19T05:08:58.669152", "MEAN_MOTION": 15.15826747, "ECCENTRICITY": 0.0015578, "INCLINATION": 45.0023, "RA_OF_ASC_NODE": 275.4208, "ARG_OF_PERICENTER": 233.6094, "MEAN_ANOMALY": 126.3348, "EPHEMERIS_TYPE": 0, "CLASSIFICATION_TYPE": "U", "NORAD_CAT_ID": 60452, "ELEMENT_SET_NO": 999, "REV_AT_EPOCH": 7471, "BSTAR": 0.00018927, "MEAN_MOTION_DOT": 3.424e-05, "MEAN_MOTION_DDOT": 0}, "tle": {"line1": "1 60452U 24146A   25353.21456793  .00003424  00000+0  18927-3 0  9991", "line2": "2 60452  45.0023 275.4208 0015578 233.6094 126.3348 15.15826747 74716"}}, "geometry": {"type": "Point", "coordinates": [-62.90941922138629, 23.34940526172216]}}, {"type": "Feature", "properties": {"norad_id": 60453, "name": "LEGION 4", "group": "resource", "lat": 22.296700715832415, "lon": 27.46403078077024, "alt_km": 510.5167568142506, "timestamp": "2025-12-19T22:41:52.037068+00:00", "meta": {"OBJECT_NAME": "LEGION 4", "OBJECT_ID": "2024-146B", "EPOCH": "2025-12-19T17:48:38.964096", "MEAN_MOTION": 15.15892363, "ECCENTRICITY": 0.0008815, "INCLINATION": 45.0395, "RA_OF_ASC_NODE": 4.3645, "ARG_OF_PERICENTER": 348.481, "MEAN_ANOMALY": 11.5866, "EPHEMERIS_TYPE": 0, "CLASSIFICATION_TYPE": "U", "NORAD_CAT_ID": 60453, "ELEMENT_SET_NO": 999, "REV_AT_EPOCH": 7364, "BSTAR": 0.00018302, "MEAN_MOTION_DOT": 3.302e-05, "MEAN_MOTION_DDOT": 0}, "tle": {"line1": "1 60453U 24146B   25353.74211764  .00003302  00000+0  18302-3 0  9999", "line2": "2 60453  45.0395   4.3645 0008815 348.4810  11.5866 15.15892363 73648"}}, "geometry": {"type": "Point", "coordinates": [27.46403078077024, 22.296700715832415]}}]}